[
    {
        "Altitude(m)": 611967.1457626777,
        "Argument of Periapsis(deg)": 0.0,
        "Eccentricity": 0.0,
        "Inclination(deg)": 60.0,
        "Latitude(deg)": 59.14006103110705,
        "Longitude(deg)": -58.90800432231769,
        "Mean Anomaly(deg)": -261.8182,
        "RAAN(deg)": 295.00000000000006,
        "Satellite Name": "Test1 1304",
        "Satellite Number": 1304,
        "Semi-Major Axis(m)": 6980739.136638005,
        "Time(s)": 0
    },
    {
        "Altitude(m)": 611934.3457780574,
        "Argument of Periapsis(deg)": 0.00010418945913296404,
        "Eccentricity": 0.0,
        "Inclination(deg)": 60.0,
        "Latitude(deg)": 58.986423960777444,
        "Longitude(deg)": -57.78476147080604,
        "Mean Anomaly(deg)": -261.1980938545382,
        "RAAN(deg)": 294.99957995086027,
        "Satellite Name": "Test1 1304",
        "Satellite Number": 1304,
        "Semi-Major Axis(m)": 6980739.136638005,
        "Time(s)": 10
    }
]